ONEWEB-0112             
1 48051U 21025K   26065.26994241  .00000115  00000+0  27893-3 0  9992
2 48051  87.9056 340.6711 0001954  86.1984 273.9368 13.13470598240085
ONEWEB-0156             
1 48052U 21025L   26065.20222987  .00000297  00000+0  77919-3 0  9993
2 48052  87.9048 340.6957 0001808  75.5888 284.5442 13.13469741240058
ONEWEB-0161             
1 48053U 21025M   26065.25301278 -.00000242  00000+0 -69688-3 0  9996
2 48053  87.9039 340.6953 0001904  75.4190 284.7150 13.13469934239990
ONEWEB-0158             
1 48054U 21025N   26065.21239026  .00000400  00000+0  10604-2 0  9991
2 48054  87.9048 340.6936 0001527  89.1568 270.9736 13.13469858240112
ONEWEB-0157             
1 48055U 21025P   26065.23777761 -.00000129  00000+0 -38682-3 0  9994
2 48055  87.9047 340.6937 0002134  76.3353 283.8013 13.13468764240057
ONEWEB-0162             
1 48056U 21025Q   26065.21393952  .00000459  00000+0  12211-2 0  9992
2 48056  87.9046 340.7026 0001729  73.4316 286.7003 13.13471422240026
ONEWEB-0155             
1 48057U 21025R   26065.22085291  .00000390  00000+0  10317-2 0  9997
2 48057  87.9039 340.7010 0001923  82.9400 277.1948 13.13468853240168
ONEWEB-0149             
1 48058U 21025S   26065.24285268 -.00000116  00000+0 -35217-3 0  9991
2 48058  87.9041 340.6941 0001719  75.4288 284.7032 13.13469131239973
ONEWEB-0148             
1 48059U 21025T   26065.28179314  .00000385  00000+0  10194-2 0  9992
2 48059  87.9039 340.6996 0001890  60.6845 299.4473 13.13471629240100
ONEWEB-0160             
1 48060U 21025U   26065.22254096  .00000365  00000+0  96540-3 0  9997
2 48060  87.9036 340.7082 0001075  92.9699 267.1553 13.13469283240043
ONEWEB-0163             
1 48061U 21025V   26065.28348975  .00000337  00000+0  88901-3 0  9995
2 48061  87.9041 340.6881 0002016  77.0119 283.1235 13.13470125240179
ONEWEB-0159             
1 48062U 21025W   26065.27501794  .00000226  00000+0  58453-3 0  9991
2 48062  87.9048 340.6759 0001930  73.6613 286.4728 13.13469186240095
ONEWEB-0164             
1 48063U 21025X   26065.25639489 -.00000287  00000+0 -82178-3 0  9993
2 48063  87.9055 340.6858 0001711  79.8668 280.2654 13.13469634240075
ONEWEB-0167             
1 48064U 21025Y   26065.28435131  .00000359  00000+0  94833-3 0  9994
2 48064  87.9038 340.7002 0002269  91.3194 268.8195 13.13470617240065
ONEWEB-0166             
1 48065U 21025Z   26065.23100532  .00000008  00000+0 -12975-4 0  9994
2 48065  87.9049 340.6735 0001820  73.0538 287.0791 13.13468682240133
ONEWEB-0151             
1 48066U 21025AA  26065.23270230  .00000027  00000+0  38149-4 0  9999
2 48066  87.9039 340.6991 0001794  81.7931 278.3402 13.13468710240077
