[{"OBJECT_NAME":"ONEWEB-0112","OBJECT_ID":"2021-025K","EPOCH":"2026-03-06T06:28:43.024224","MEAN_MOTION":13.13470598,"ECCENTRICITY":0.00019549,"INCLINATION":87.9056,"RA_OF_ASC_NODE":340.6711,"ARG_OF_PERICENTER":86.1984,"MEAN_ANOMALY":273.9368,"EPHEMERIS_TYPE":0,"CLASSIFICATION_TYPE":"U","NORAD_CAT_ID":48051,"ELEMENT_SET_NO":999,"REV_AT_EPOCH":24008,"BSTAR":0.00027893021,"MEAN_MOTION_DOT":1.15e-6,"MEAN_MOTION_DDOT":0},{"OBJECT_NAME":"ONEWEB-0156","OBJECT_ID":"2021-025L","EPOCH":"2026-03-06T04:51:12.660768","MEAN_MOTION":13.13469741,"ECCENTRICITY":0.00018085,"INCLINATION":87.9048,"RA_OF_ASC_NODE":340.6957,"ARG_OF_PERICENTER":75.5888,"MEAN_ANOMALY":284.5442,"EPHEMERIS_TYPE":0,"CLASSIFICATION_TYPE":"U","NORAD_CAT_ID":48052,"ELEMENT_SET_NO":999,"REV_AT_EPOCH":24005,"BSTAR":0.00077919439,"MEAN_MOTION_DOT":2.97e-6,"MEAN_MOTION_DDOT":0},{"OBJECT_NAME":"ONEWEB-0161","OBJECT_ID":"2021-025M","EPOCH":"2026-03-06T06:04:20.304192","MEAN_MOTION":13.13469934,"ECCENTRICITY":0.0001904,"INCLINATION":87.9039,"RA_OF_ASC_NODE":340.6953,"ARG_OF_PERICENTER":75.419,"MEAN_ANOMALY":284.715,"EPHEMERIS_TYPE":0,"CLASSIFICATION_TYPE":"U","NORAD_CAT_ID":48053,"ELEMENT_SET_NO":999,"REV_AT_EPOCH":23999,"BSTAR":-0.00069688253,"MEAN_MOTION_DOT":-2.42e-6,"MEAN_MOTION_DDOT":0},{"OBJECT_NAME":"ONEWEB-0158","OBJECT_ID":"2021-025N","EPOCH":"2026-03-06T05:05:50.518464","MEAN_MOTION":13.13469858,"ECCENTRICITY":0.00015276,"INCLINATION":87.9048,"RA_OF_ASC_NODE":340.6936,"ARG_OF_PERICENTER":89.1568,"MEAN_ANOMALY":270.9736,"EPHEMERIS_TYPE":0,"CLASSIFICATION_TYPE":"U","NORAD_CAT_ID":48054,"ELEMENT_SET_NO":999,"REV_AT_EPOCH":24011,"BSTAR":0.0010604336,"MEAN_MOTION_DOT":4.0e-6,"MEAN_MOTION_DDOT":0},{"OBJECT_NAME":"ONEWEB-0157","OBJECT_ID":"2021-025P","EPOCH":"2026-03-06T05:42:23.985504","MEAN_MOTION":13.13468764,"ECCENTRICITY":0.0002134,"INCLINATION":87.9047,"RA_OF_ASC_NODE":340.6937,"ARG_OF_PERICENTER":76.3353,"MEAN_ANOMALY":283.8013,"EPHEMERIS_TYPE":0,"CLASSIFICATION_TYPE":"U","NORAD_CAT_ID":48055,"ELEMENT_SET_NO":999,"REV_AT_EPOCH":24005,"BSTAR":-0.00038681996,"MEAN_MOTION_DOT":-1.29e-6,"MEAN_MOTION_DDOT":0},{"OBJECT_NAME":"ONEWEB-0162","OBJECT_ID":"2021-025Q","EPOCH":"2026-03-06T05:08:04.374528","MEAN_MOTION":13.13471422,"ECCENTRICITY":0.00017296,"INCLINATION":87.9046,"RA_OF_ASC_NODE":340.7026,"ARG_OF_PERICENTER":73.4316,"MEAN_ANOMALY":286.7003,"EPHEMERIS_TYPE":0,"CLASSIFICATION_TYPE":"U","NORAD_CAT_ID":48056,"ELEMENT_SET_NO":999,"REV_AT_EPOCH":24002,"BSTAR":0.0012210604,"MEAN_MOTION_DOT":4.59e-6,"MEAN_MOTION_DDOT":0},{"OBJECT_NAME":"ONEWEB-0155","OBJECT_ID":"2021-025R","EPOCH":"2026-03-06T05:18:01.691424","MEAN_MOTION":13.13468853,"ECCENTRICITY":0.00019232,"INCLINATION":87.9039,"RA_OF_ASC_NODE":340.701,"ARG_OF_PERICENTER":82.94,"MEAN_ANOMALY":277.1948,"EPHEMERIS_TYPE":0,"CLASSIFICATION_TYPE":"U","NORAD_CAT_ID":48057,"ELEMENT_SET_NO":999,"REV_AT_EPOCH":24016,"BSTAR":0.0010317419,"MEAN_MOTION_DOT":3.9e-6,"MEAN_MOTION_DDOT":0},{"OBJECT_NAME":"ONEWEB-0149","OBJECT_ID":"2021-025S","EPOCH":"2026-03-06T05:49:42.471552","MEAN_MOTION":13.13469131,"ECCENTRICITY":0.00017192,"INCLINATION":87.9041,"RA_OF_ASC_NODE":340.6941,"ARG_OF_PERICENTER":75.4288,"MEAN_ANOMALY":284.7032,"EPHEMERIS_TYPE":0,"CLASSIFICATION_TYPE":"U","NORAD_CAT_ID":48058,"ELEMENT_SET_NO":999,"REV_AT_EPOCH":23997,"BSTAR":-0.00035217064,"MEAN_MOTION_DOT":-1.16e-6,"MEAN_MOTION_DDOT":0},{"OBJECT_NAME":"ONEWEB-0148","OBJECT_ID":"2021-025T","EPOCH":"2026-03-06T06:45:46.927296","MEAN_MOTION":13.13471629,"ECCENTRICITY":0.00018906,"INCLINATION":87.9039,"RA_OF_ASC_NODE":340.6996,"ARG_OF_PERICENTER":60.6845,"MEAN_ANOMALY":299.4473,"EPHEMERIS_TYPE":0,"CLASSIFICATION_TYPE":"U","NORAD_CAT_ID":48059,"ELEMENT_SET_NO":999,"REV_AT_EPOCH":24010,"BSTAR":0.0010194321,"MEAN_MOTION_DOT":3.85e-6,"MEAN_MOTION_DDOT":0},{"OBJECT_NAME":"ONEWEB-0160","OBJECT_ID":"2021-025U","EPOCH":"2026-03-06T05:20:27.538944","MEAN_MOTION":13.13469283,"ECCENTRICITY":0.00010751,"INCLINATION":87.9036,"RA_OF_ASC_NODE":340.7082,"ARG_OF_PERICENTER":92.9699,"MEAN_ANOMALY":267.1553,"EPHEMERIS_TYPE":0,"CLASSIFICATION_TYPE":"U","NORAD_CAT_ID":48060,"ELEMENT_SET_NO":999,"REV_AT_EPOCH":24004,"BSTAR":0.00096539626,"MEAN_MOTION_DOT":3.65e-6,"MEAN_MOTION_DDOT":0},{"OBJECT_NAME":"ONEWEB-0163","OBJECT_ID":"2021-025V","EPOCH":"2026-03-06T06:48:13.514400","MEAN_MOTION":13.13470125,"ECCENTRICITY":0.00020169,"INCLINATION":87.9041,"RA_OF_ASC_NODE":340.6881,"ARG_OF_PERICENTER":77.0119,"MEAN_ANOMALY":283.1235,"EPHEMERIS_TYPE":0,"CLASSIFICATION_TYPE":"U","NORAD_CAT_ID":48061,"ELEMENT_SET_NO":999,"REV_AT_EPOCH":24017,"BSTAR":0.00088900591,"MEAN_MOTION_DOT":3.37e-6,"MEAN_MOTION_DDOT":0},{"OBJECT_NAME":"ONEWEB-0159","OBJECT_ID":"2021-025W","EPOCH":"2026-03-06T06:36:01.550016","MEAN_MOTION":13.13469186,"ECCENTRICITY":0.00019309,"INCLINATION":87.9048,"RA_OF_ASC_NODE":340.6759,"ARG_OF_PERICENTER":73.6613,"MEAN_ANOMALY":286.4728,"EPHEMERIS_TYPE":0,"CLASSIFICATION_TYPE":"U","NORAD_CAT_ID":48062,"ELEMENT_SET_NO":999,"REV_AT_EPOCH":24009,"BSTAR":0.00058452876,"MEAN_MOTION_DOT":2.26e-6,"MEAN_MOTION_DDOT":0},{"OBJECT_NAME":"ONEWEB-0164","OBJECT_ID":"2021-025X","EPOCH":"2026-03-06T06:09:12.518496","MEAN_MOTION":13.13469634,"ECCENTRICITY":0.00017114,"INCLINATION":87.9055,"RA_OF_ASC_NODE":340.6858,"ARG_OF_PERICENTER":79.8668,"MEAN_ANOMALY":280.2654,"EPHEMERIS_TYPE":0,"CLASSIFICATION_TYPE":"U","NORAD_CAT_ID":48063,"ELEMENT_SET_NO":999,"REV_AT_EPOCH":24007,"BSTAR":-0.00082178021,"MEAN_MOTION_DOT":-2.87e-6,"MEAN_MOTION_DDOT":0},{"OBJECT_NAME":"ONEWEB-0167","OBJECT_ID":"2021-025Y","EPOCH":"2026-03-06T06:49:27.953184","MEAN_MOTION":13.13470617,"ECCENTRICITY":0.0002269,"INCLINATION":87.9038,"RA_OF_ASC_NODE":340.7002,"ARG_OF_PERICENTER":91.3194,"MEAN_ANOMALY":268.8195,"EPHEMERIS_TYPE":0,"CLASSIFICATION_TYPE":"U","NORAD_CAT_ID":48064,"ELEMENT_SET_NO":999,"REV_AT_EPOCH":24006,"BSTAR":0.00094833175,"MEAN_MOTION_DOT":3.59e-6,"MEAN_MOTION_DDOT":0},{"OBJECT_NAME":"ONEWEB-0166","OBJECT_ID":"2021-025Z","EPOCH":"2026-03-06T05:32:38.859648","MEAN_MOTION":13.13468682,"ECCENTRICITY":0.00018209,"INCLINATION":87.9049,"RA_OF_ASC_NODE":340.6735,"ARG_OF_PERICENTER":73.0538,"MEAN_ANOMALY":287.0791,"EPHEMERIS_TYPE":0,"CLASSIFICATION_TYPE":"U","NORAD_CAT_ID":48065,"ELEMENT_SET_NO":999,"REV_AT_EPOCH":24013,"BSTAR":-1.2975408e-5,"MEAN_MOTION_DOT":8.0e-8,"MEAN_MOTION_DDOT":0},{"OBJECT_NAME":"ONEWEB-0151","OBJECT_ID":"2021-025AA","EPOCH":"2026-03-06T05:35:05.478720","MEAN_MOTION":13.1346871,"ECCENTRICITY":0.00017944,"INCLINATION":87.9039,"RA_OF_ASC_NODE":340.6991,"ARG_OF_PERICENTER":81.7931,"MEAN_ANOMALY":278.3402,"EPHEMERIS_TYPE":0,"CLASSIFICATION_TYPE":"U","NORAD_CAT_ID":48066,"ELEMENT_SET_NO":999,"REV_AT_EPOCH":24007,"BSTAR":3.814946e-5,"MEAN_MOTION_DOT":2.7e-7,"MEAN_MOTION_DDOT":0}]
